{"type": "FeatureCollection", "features": [ {"type": "Feature", "properties": {"norad_id": 34141, "name": "COSMOS 2251 DEB", "group": "cosmos-2251-debris", "lat": -73.46091895817905, "lon": -70.88301923027467, "alt_km": 762.6876409604101, "timestamp": "2025-12-09T21:34:11.803318+00:00", "meta": {"OBJECT_NAME": "COSMOS 2251 DEB", "OBJECT_ID": "1993-036LN", "EPOCH": "2025-12-09T05:43:21.495072", "MEAN_MOTION": 14.4918046, "ECCENTRICITY": 0.0047664, "INCLINATION": 74.0109, "RA_OF_ASC_NODE": 35.4385, "ARG_OF_PERICENTER": 122.8828, "MEAN_ANOMALY": 299.0857, "EPHEMERIS_TYPE": 0, "CLASSIFICATION_TYPE": "U", "NORAD_CAT_ID": 34141, "ELEMENT_SET_NO": 999, "REV_AT_EPOCH": 87643, "BSTAR": 0.002117, "MEAN_MOTION_DOT": 8.158e-05, "MEAN_MOTION_DDOT": 0}, "tle": {"line1": "1 34141U 93036LN  25343.23844323  .00008158  00000+0  21170-2 0  9994", "line2": "2 34141  74.0109  35.4385 0047664 122.8828 299.0857 14.49180460876437"}}, "geometry": {"type": "Point", "coordinates": [-70.88301923027467, -73.46091895817905]}}, {"type": "Feature", "properties": {"norad_id": 34270, "name": "COSMOS 2251 DEB", "group": "cosmos-2251-debris", "lat": 55.151550017159586, "lon": -23.581149082484316, "alt_km": 648.0303526549005, "timestamp": "2025-12-09T21:34:11.803328+00:00", "meta": {"OBJECT_NAME": "COSMOS 2251 DEB", "OBJECT_ID": "1993-036LQ", "EPOCH": "2025-12-09T08:11:37.921632", "MEAN_MOTION": 14.65123493, "ECCENTRICITY": 0.0047764, "INCLINATION": 74.0118, "RA_OF_ASC_NODE": 313.1754, "ARG_OF_PERICENTER": 106.9597, "MEAN_ANOMALY": 253.6815, "EPHEMERIS_TYPE": 0, "CLASSIFICATION_TYPE": "U", "NORAD_CAT_ID": 34270, "ELEMENT_SET_NO": 999, "REV_AT_EPOCH": 89046, "BSTAR": 0.00087347822, "MEAN_MOTION_DOT": 4.745e-05, "MEAN_MOTION_DDOT": 0}, "tle": {"line1": "1 34270U 93036LQ  25343.34141113  .00004745  00000+0  87348-3 0  9994", "line2": "2 34270  74.0118 313.1754 0047764 106.9597 253.6815 14.65123493890463"}}, "geometry": {"type": "Point", "coordinates": [-23.581149082484316, 55.151550017159586]}}, {"type": "Feature", "properties": {"norad_id": 34271, "name": "COSMOS 2251 DEB", "group": "cosmos-2251-debris", "lat": -48.96118137726427, "lon": -174.37282338829934, "alt_km": 656.6256236156778, "timestamp": "2025-12-09T21:34:11.803339+00:00", "meta": {"OBJECT_NAME": "COSMOS 2251 DEB", "OBJECT_ID": "1993-036LR", "EPOCH": "2025-12-09T07:39:50.151744", "MEAN_MOTION": 14.70637855, "ECCENTRICITY": 0.0019241, "INCLINATION": 74.0197, "RA_OF_ASC_NODE": 205.9728, "ARG_OF_PERICENTER": 260.5156, "MEAN_ANOMALY": 221.3581, "EPHEMERIS_TYPE": 0, "CLASSIFICATION_TYPE": "U", "NORAD_CAT_ID": 34271, "ELEMENT_SET_NO": 999, "REV_AT_EPOCH": 88184, "BSTAR": 0.0023857, "MEAN_MOTION_DOT": 0.00014558, "MEAN_MOTION_DDOT": 0}, "tle": {"line1": "1 34271U 93036LR  25343.31933046  .00014558  00000+0  23857-2 0  9993", "line2": "2 34271  74.0197 205.9728 0019241 260.5156 221.3581 14.70637855881849"}}, "geometry": {"type": "Point", "coordinates": [-174.37282338829934, -48.96118137726427]}}, {"type": "Feature", "properties": {"norad_id": 34273, "name": "COSMOS 2251 DEB", "group": "cosmos-2251-debris", "lat": 60.4205110494763, "lon": 123.14573070312669, "alt_km": 692.1770743653251, "timestamp": "2025-12-09T21:34:11.803349+00:00", "meta": {"OBJECT_NAME": "COSMOS 2251 DEB", "OBJECT_ID": "1993-036LT", "EPOCH": "2025-12-09T10:04:24.852576", "MEAN_MOTION": 14.61173152, "ECCENTRICITY": 0.00142582, "INCLINATION": 74.0361, "RA_OF_ASC_NODE": 93.7751, "ARG_OF_PERICENTER": 219.5157, "MEAN_ANOMALY": 206.6731, "EPHEMERIS_TYPE": 0, "CLASSIFICATION_TYPE": "U", "NORAD_CAT_ID": 34273, "ELEMENT_SET_NO": 999, "REV_AT_EPOCH": 88573, "BSTAR": 0.0015678521, "MEAN_MOTION_DOT": 7.71e-05, "MEAN_MOTION_DDOT": 0}, "tle": {"line1": "1 34273U 93036LT  25343.41973209  .00007710  00000+0  15679-2 0  9996", "line2": "2 34273  74.0361  93.7751 0014258 219.5157 206.6731 14.61173152885731"}}, "geometry": {"type": "Point", "coordinates": [123.14573070312669, 60.4205110494763]}}, {"type": "Feature", "properties": {"norad_id": 34274, "name": "COSMOS 2251 DEB", "group": "cosmos-2251-debris", "lat": 64.1511344701047, "lon": -142.26363466789803, "alt_km": 677.6162110780979, "timestamp": "2025-12-09T21:34:11.803359+00:00", "meta": {"OBJECT_NAME": "COSMOS 2251 DEB", "OBJECT_ID": "1993-036LU", "EPOCH": "2025-12-09T12:57:40.540320", "MEAN_MOTION": 14.64718516, "ECCENTRICITY": 0.00222233, "INCLINATION": 74.0046, "RA_OF_ASC_NODE": 74.7322, "ARG_OF_PERICENTER": 224.9986, "MEAN_ANOMALY": 155.1479, "EPHEMERIS_TYPE": 0, "CLASSIFICATION_TYPE": "U", "NORAD_CAT_ID": 34274, "ELEMENT_SET_NO": 999, "REV_AT_EPOCH": 88629, "BSTAR": 0.0018621635, "MEAN_MOTION_DOT": 9.936e-05, "MEAN_MOTION_DDOT": 0}, "tle": {"line1": "1 34274U 93036LU  25343.54005255  .00009936  00000+0  18622-2 0  9991", "line2": "2 34274  74.0046  74.7322 0022223 224.9986 155.1479 14.64718516886297"}}, "geometry": {"type": "Point", "coordinates": [-142.26363466789803, 64.1511344701047]}}, {"type": "Feature", "properties": {"norad_id": 34276, "name": "COSMOS 2251 DEB", "group": "cosmos-2251-debris", "lat": 51.694276537988735, "lon": -110.54232540849523, "alt_km": 703.1495220041506, "timestamp": "2025-12-09T21:34:11.803369+00:00", "meta": {"OBJECT_NAME": "COSMOS 2251 DEB", "OBJECT_ID": "1993-036LW", "EPOCH": "2025-12-09T14:27:20.990592", "MEAN_MOTION": 14.57192735, "ECCENTRICITY": 0.00226448, "INCLINATION": 74.0238, "RA_OF_ASC_NODE": 91.2857, "ARG_OF_PERICENTER": 238.1636, "MEAN_ANOMALY": 132.9404, "EPHEMERIS_TYPE": 0, "CLASSIFICATION_TYPE": "U", "NORAD_CAT_ID": 34276, "ELEMENT_SET_NO": 999, "REV_AT_EPOCH": 88547, "BSTAR": 0.0013709092, "MEAN_MOTION_DOT": 6.187e-05, "MEAN_MOTION_DDOT": 0}, "tle": {"line1": "1 34276U 93036LW  25343.60232628  .00006187  00000+0  13709-2 0  9992", "line2": "2 34276  74.0238  91.2857 0022644 238.1636 132.9404 14.57192735885476"}}, "geometry": {"type": "Point", "coordinates": [-110.54232540849523, 51.694276537988735]}}, {"type": "Feature", "properties": {"norad_id": 34297, "name": "COSMOS 2251 DEB", "group": "cosmos-2251-debris", "lat": -11.668771425834132, "lon": -73.93706251047503, "alt_km": 761.6201755482243, "timestamp": "2025-12-09T21:34:11.803379+00:00", "meta": {"OBJECT_NAME": "COSMOS 2251 DEB", "OBJECT_ID": "1993-036MT", "EPOCH": "2025-12-09T14:05:01.863168", "MEAN_MOTION": 14.36625033, "ECCENTRICITY": 0.00171508, "INCLINATION": 74.0485, "RA_OF_ASC_NODE": 290.0218, "ARG_OF_PERICENTER": 359.2896, "MEAN_ANOMALY": 176.1611, "EPHEMERIS_TYPE": 0, "CLASSIFICATION_TYPE": "U", "NORAD_CAT_ID": 34297, "ELEMENT_SET_NO": 999, "REV_AT_EPOCH": 88019, "BSTAR": 0.00027182301, "MEAN_MOTION_DOT": 7.75e-06, "MEAN_MOTION_DDOT": 0}, "tle": {"line1": "1 34297U 93036MT  25343.58682712  .00000775  00000+0  27182-3 0  9993", "line2": "2 34297  74.0485 290.0218 0017150 359.2896 176.1611 14.36625033880195"}}, "geometry": {"type": "Point", "coordinates": [-73.93706251047503, -11.668771425834132]}}, {"type": "Feature", "properties": {"norad_id": 34299, "name": "COSMOS 2251 DEB", "group": "cosmos-2251-debris", "lat": -45.1062459632233, "lon": -35.7752669996867, "alt_km": 375.60562103498705, "timestamp": "2025-12-09T21:34:11.803389+00:00", "meta": {"OBJECT_NAME": "COSMOS 2251 DEB", "OBJECT_ID": "1993-036MV", "EPOCH": "2025-12-09T09:30:56.541600", "MEAN_MOTION": 15.66870551, "ECCENTRICITY": 0.00219831, "INCLINATION": 73.979, "RA_OF_ASC_NODE": 342.1221, "ARG_OF_PERICENTER": 57.9186, "MEAN_ANOMALY": 302.4165, "EPHEMERIS_TYPE": 0, "CLASSIFICATION_TYPE": "U", "NORAD_CAT_ID": 34299, "ELEMENT_SET_NO": 999, "REV_AT_EPOCH": 88958, "BSTAR": 0.0068353592, "MEAN_MOTION_DOT": 0.00804333, "MEAN_MOTION_DDOT": 0}, "tle": {"line1": "1 34299U 93036MV  25343.39648775  .00804333  00000+0  68354-2 0  9992", "line2": "2 34299  73.9790 342.1221 0021983  57.9186 302.4165 15.66870551889581"}}, "geometry": {"type": "Point", "coordinates": [-35.7752669996867, -45.1062459632233]}}, {"type": "Feature", "properties": {"norad_id": 34301, "name": "COSMOS 2251 DEB", "group": "cosmos-2251-debris", "lat": 13.897235407944155, "lon": -11.721670726106382, "alt_km": 613.0876376222968, "timestamp": "2025-12-09T21:34:11.803399+00:00", "meta": {"OBJECT_NAME": "COSMOS 2251 DEB", "OBJECT_ID": "1993-036MX", "EPOCH": "2025-12-09T00:30:20.035008", "MEAN_MOTION": 14.84254528, "ECCENTRICITY": 0.00117791, "INCLINATION": 74.0056, "RA_OF_ASC_NODE": 174.0909, "ARG_OF_PERICENTER": 233.226, "MEAN_ANOMALY": 284.4717, "EPHEMERIS_TYPE": 0, "CLASSIFICATION_TYPE": "U", "NORAD_CAT_ID": 34301, "ELEMENT_SET_NO": 999, "REV_AT_EPOCH": 88345, "BSTAR": 0.0032627811, "MEAN_MOTION_DOT": 0.00027446, "MEAN_MOTION_DDOT": 0}, "tle": {"line1": "1 34301U 93036MX  25343.02106522  .00027446  00000+0  32628-2 0  9992", "line2": "2 34301  74.0056 174.0909 0011779 233.2260 284.4717 14.84254528883452"}}, "geometry": {"type": "Point", "coordinates": [-11.721670726106382, 13.897235407944155]}}, {"type": "Feature", "properties": {"norad_id": 34302, "name": "COSMOS 2251 DEB", "group": "cosmos-2251-debris", "lat": -4.465274007464823, "lon": 127.51035489725326, "alt_km": 708.80004601562, "timestamp": "2025-12-09T21:34:11.803410+00:00", "meta": {"OBJECT_NAME": "COSMOS 2251 DEB", "OBJECT_ID": "1993-036MY", "EPOCH": "2025-12-09T11:52:40.891872", "MEAN_MOTION": 14.39312397, "ECCENTRICITY": 0.00785686, "INCLINATION": 74.1781, "RA_OF_ASC_NODE": 129.5179, "ARG_OF_PERICENTER": 345.6973, "MEAN_ANOMALY": 78.0083, "EPHEMERIS_TYPE": 0, "CLASSIFICATION_TYPE": "U", "NORAD_CAT_ID": 34302, "ELEMENT_SET_NO": 999, "REV_AT_EPOCH": 87674, "BSTAR": 0.0010431032, "MEAN_MOTION_DOT": 3.334e-05, "MEAN_MOTION_DDOT": 0}, "tle": {"line1": "1 34302U 93036MY  25343.49491773  .00003334  00000+0  10431-2 0  9997", "line2": "2 34302  74.1781 129.5179 0078568 345.6973  78.0083 14.39312397876747"}}, "geometry": {"type": "Point", "coordinates": [127.51035489725326, -4.465274007464823]}}]}